[{"OBJECT_NAME":"METOP-B","OBJECT_ID":"2012-049A","EPOCH":"2026-04-05T06:20:10.341312","MEAN_MOTION":14.21427867,"ECCENTRICITY":0.00024748,"INCLINATION":98.6584,"RA_OF_ASC_NODE":148.1921,"ARG_OF_PERICENTER":169.7239,"MEAN_ANOMALY":190.399,"EPHEMERIS_TYPE":0,"CLASSIFICATION_TYPE":"U","NORAD_CAT_ID":38771,"ELEMENT_SET_NO":999,"REV_AT_EPOCH":70290,"BSTAR":0.00010351737,"MEAN_MOTION_DOT":1.83e-6,"MEAN_MOTION_DDOT":0},{"OBJECT_NAME":"SARAL","OBJECT_ID":"2013-009A","EPOCH":"2026-04-05T06:38:42.241920","MEAN_MOTION":14.32837944,"ECCENTRICITY":0.00027464,"INCLINATION":98.5564,"RA_OF_ASC_NODE":282.7619,"ARG_OF_PERICENTER":121.5982,"MEAN_ANOMALY":238.547,"EPHEMERIS_TYPE":0,"CLASSIFICATION_TYPE":"U","NORAD_CAT_ID":39086,"ELEMENT_SET_NO":999,"REV_AT_EPOCH":68516,"BSTAR":7.3619518e-5,"MEAN_MOTION_DOT":1.57e-6,"MEAN_MOTION_DDOT":0},{"OBJECT_NAME":"METOP-C","OBJECT_ID":"2018-087A","EPOCH":"2026-04-05T05:12:12.892896","MEAN_MOTION":14.21506518,"ECCENTRICITY":0.00017581,"INCLINATION":98.6711,"RA_OF_ASC_NODE":156.1323,"ARG_OF_PERICENTER":63.996,"MEAN_ANOMALY":296.1398,"EPHEMERIS_TYPE":0,"CLASSIFICATION_TYPE":"U","NORAD_CAT_ID":43689,"ELEMENT_SET_NO":999,"REV_AT_EPOCH":38446,"BSTAR":0.00010476683,"MEAN_MOTION_DOT":1.86e-6,"MEAN_MOTION_DDOT":0},{"OBJECT_NAME":"OTB-3-GAZELLE","OBJECT_ID":"2022-127A","EPOCH":"2026-04-05T05:38:54.132864","MEAN_MOTION":14.42648069,"ECCENTRICITY":0.00141466,"INCLINATION":98.3931,"RA_OF_ASC_NODE":88.0601,"ARG_OF_PERICENTER":52.1404,"MEAN_ANOMALY":308.1064,"EPHEMERIS_TYPE":0,"CLASSIFICATION_TYPE":"U","NORAD_CAT_ID":54023,"ELEMENT_SET_NO":999,"REV_AT_EPOCH":18384,"BSTAR":8.4266706e-5,"MEAN_MOTION_DOT":2.37e-6,"MEAN_MOTION_DDOT":0},{"OBJECT_NAME":"EOS-6 (OCEANSAT-3)","OBJECT_ID":"2022-158A","EPOCH":"2026-04-05T06:42:39.108384","MEAN_MOTION":14.4698318,"ECCENTRICITY":0.00016805,"INCLINATION":98.3484,"RA_OF_ASC_NODE":194.4605,"ARG_OF_PERICENTER":135.694,"MEAN_ANOMALY":224.4387,"EPHEMERIS_TYPE":0,"CLASSIFICATION_TYPE":"U","NORAD_CAT_ID":54361,"ELEMENT_SET_NO":999,"REV_AT_EPOCH":17729,"BSTAR":0.00015595902,"MEAN_MOTION_DOT":5.23e-6,"MEAN_MOTION_DDOT":0},{"OBJECT_NAME":"KINEIS-1B","OBJECT_ID":"2024-114A","EPOCH":"2026-04-05T06:21:38.445120","MEAN_MOTION":14.80497434,"ECCENTRICITY":0.00020856,"INCLINATION":97.9886,"RA_OF_ASC_NODE":119.7875,"ARG_OF_PERICENTER":13.2907,"MEAN_ANOMALY":346.8359,"EPHEMERIS_TYPE":0,"CLASSIFICATION_TYPE":"U","NORAD_CAT_ID":60079,"ELEMENT_SET_NO":999,"REV_AT_EPOCH":9661,"BSTAR":0.00025595552,"MEAN_MOTION_DOT":1.906e-5,"MEAN_MOTION_DDOT":0},{"OBJECT_NAME":"KINEIS-1C","OBJECT_ID":"2024-114C","EPOCH":"2026-04-05T05:33:01.628640","MEAN_MOTION":14.80500138,"ECCENTRICITY":0.00024819,"INCLINATION":97.9905,"RA_OF_ASC_NODE":119.5853,"ARG_OF_PERICENTER":83.7295,"MEAN_ANOMALY":276.42,"EPHEMERIS_TYPE":0,"CLASSIFICATION_TYPE":"U","NORAD_CAT_ID":60081,"ELEMENT_SET_NO":999,"REV_AT_EPOCH":9658,"BSTAR":0.00025967073,"MEAN_MOTION_DOT":1.935e-5,"MEAN_MOTION_DDOT":0},{"OBJECT_NAME":"KINEIS-1D","OBJECT_ID":"2024-114D","EPOCH":"2026-04-05T07:31:23.983392","MEAN_MOTION":14.76164069,"ECCENTRICITY":0.00028678,"INCLINATION":97.9945,"RA_OF_ASC_NODE":116.2325,"ARG_OF_PERICENTER":82.1471,"MEAN_ANOMALY":278.0064,"EPHEMERIS_TYPE":0,"CLASSIFICATION_TYPE":"U","NORAD_CAT_ID":60082,"ELEMENT_SET_NO":999,"REV_AT_EPOCH":9637,"BSTAR":0.00016432476,"MEAN_MOTION_DOT":1.085e-5,"MEAN_MOTION_DDOT":0},{"OBJECT_NAME":"KINEIS-1E","OBJECT_ID":"2024-114E","EPOCH":"2026-04-05T07:33:08.246592","MEAN_MOTION":14.80564958,"ECCENTRICITY":0.00025195,"INCLINATION":97.9586,"RA_OF_ASC_NODE":119.6986,"ARG_OF_PERICENTER":97.7054,"MEAN_ANOMALY":262.4444,"EPHEMERIS_TYPE":0,"CLASSIFICATION_TYPE":"U","NORAD_CAT_ID":60083,"ELEMENT_SET_NO":999,"REV_AT_EPOCH":9660,"BSTAR":-0.00012091774,"MEAN_MOTION_DOT":-9.79e-6,"MEAN_MOTION_DDOT":0},{"OBJECT_NAME":"KINEIS-1A","OBJECT_ID":"2024-114F","EPOCH":"2026-04-05T05:07:49.382400","MEAN_MOTION":14.8049775,"ECCENTRICITY":0.00038562,"INCLINATION":97.9568,"RA_OF_ASC_NODE":119.7193,"ARG_OF_PERICENTER":30.8142,"MEAN_ANOMALY":329.3296,"EPHEMERIS_TYPE":0,"CLASSIFICATION_TYPE":"U","NORAD_CAT_ID":60084,"ELEMENT_SET_NO":999,"REV_AT_EPOCH":9659,"BSTAR":-2.268326e-6,"MEAN_MOTION_DOT":-7.0e-7,"MEAN_MOTION_DDOT":0},{"OBJECT_NAME":"KINEIS-3C","OBJECT_ID":"2024-172A","EPOCH":"2026-04-05T05:14:03.188544","MEAN_MOTION":14.72321989,"ECCENTRICITY":0.00025888,"INCLINATION":98.0343,"RA_OF_ASC_NODE":185.9068,"ARG_OF_PERICENTER":55.0187,"MEAN_ANOMALY":305.1263,"EPHEMERIS_TYPE":0,"CLASSIFICATION_TYPE":"U","NORAD_CAT_ID":61220,"ELEMENT_SET_NO":999,"REV_AT_EPOCH":8233,"BSTAR":0.00054783124,"MEAN_MOTION_DOT":3.415e-5,"MEAN_MOTION_DDOT":0},{"OBJECT_NAME":"KINEIS-3D","OBJECT_ID":"2024-172B","EPOCH":"2026-04-05T05:04:21.088416","MEAN_MOTION":14.72327795,"ECCENTRICITY":0.00019443,"INCLINATION":98.0341,"RA_OF_ASC_NODE":185.9113,"ARG_OF_PERICENTER":64.6618,"MEAN_ANOMALY":295.479,"EPHEMERIS_TYPE":0,"CLASSIFICATION_TYPE":"U","NORAD_CAT_ID":61221,"ELEMENT_SET_NO":999,"REV_AT_EPOCH":8261,"BSTAR":0.00054286554,"MEAN_MOTION_DOT":3.384e-5,"MEAN_MOTION_DDOT":0},{"OBJECT_NAME":"KINEIS-3E","OBJECT_ID":"2024-172C","EPOCH":"2026-04-05T04:39:33.846336","MEAN_MOTION":14.72322846,"ECCENTRICITY":0.00012789,"INCLINATION":98.0339,"RA_OF_ASC_NODE":185.8849,"ARG_OF_PERICENTER":84.7301,"MEAN_ANOMALY":275.4052,"EPHEMERIS_TYPE":0,"CLASSIFICATION_TYPE":"U","NORAD_CAT_ID":61222,"ELEMENT_SET_NO":999,"REV_AT_EPOCH":8261,"BSTAR":0.00025835438,"MEAN_MOTION_DOT":1.584e-5,"MEAN_MOTION_DDOT":0},{"OBJECT_NAME":"KINEIS-3A","OBJECT_ID":"2024-172D","EPOCH":"2026-04-05T05:53:19.549824","MEAN_MOTION":14.72355303,"ECCENTRICITY":0.00012744,"INCLINATION":98.0332,"RA_OF_ASC_NODE":186.0307,"ARG_OF_PERICENTER":9.3301,"MEAN_ANOMALY":350.793,"EPHEMERIS_TYPE":0,"CLASSIFICATION_TYPE":"U","NORAD_CAT_ID":61223,"ELEMENT_SET_NO":999,"REV_AT_EPOCH":8204,"BSTAR":0.00053020326,"MEAN_MOTION_DOT":3.306e-5,"MEAN_MOTION_DDOT":0},{"OBJECT_NAME":"KINEIS-3B","OBJECT_ID":"2024-172E","EPOCH":"2026-04-05T05:29:11.150592","MEAN_MOTION":14.72341562,"ECCENTRICITY":0.00013058,"INCLINATION":98.0331,"RA_OF_ASC_NODE":186.0438,"ARG_OF_PERICENTER":357.5502,"MEAN_ANOMALY":2.5699,"EPHEMERIS_TYPE":0,"CLASSIFICATION_TYPE":"U","NORAD_CAT_ID":61224,"ELEMENT_SET_NO":999,"REV_AT_EPOCH":8261,"BSTAR":0.00052918241,"MEAN_MOTION_DOT":3.299e-5,"MEAN_MOTION_DDOT":0},{"OBJECT_NAME":"KINEIS-5C","OBJECT_ID":"2024-219A","EPOCH":"2026-04-02T23:04:13.376352","MEAN_MOTION":14.72331808,"ECCENTRICITY":0.00044841,"INCLINATION":97.9289,"RA_OF_ASC_NODE":253.8721,"ARG_OF_PERICENTER":119.3889,"MEAN_ANOMALY":240.7767,"EPHEMERIS_TYPE":0,"CLASSIFICATION_TYPE":"U","NORAD_CAT_ID":62081,"ELEMENT_SET_NO":999,"REV_AT_EPOCH":7268,"BSTAR":-2.9484997e-5,"MEAN_MOTION_DOT":-2.35e-6,"MEAN_MOTION_DDOT":0},{"OBJECT_NAME":"KINEIS-5D","OBJECT_ID":"2024-219B","EPOCH":"2026-04-04T03:37:14.399904","MEAN_MOTION":14.72330144,"ECCENTRICITY":0.00050359,"INCLINATION":97.9227,"RA_OF_ASC_NODE":254.9913,"ARG_OF_PERICENTER":127.8012,"MEAN_ANOMALY":232.3652,"EPHEMERIS_TYPE":0,"CLASSIFICATION_TYPE":"U","NORAD_CAT_ID":62082,"ELEMENT_SET_NO":999,"REV_AT_EPOCH":7286,"BSTAR":5.1146212e-5,"MEAN_MOTION_DOT":2.75e-6,"MEAN_MOTION_DDOT":0}]
