METOP-B                 
1 38771U 12049A   26095.26400858  .00000183  00000+0  10352-3 0  9992
2 38771  98.6584 148.1921 0002474 169.7239 190.3990 14.21427867702909
SARAL                   
1 39086U 13009A   26095.27687780  .00000157  00000+0  73620-4 0  9990
2 39086  98.5564 282.7619 0002746 121.5982 238.5470 14.32837944685167
METOP-C                 
1 43689U 18087A   26095.21681589  .00000186  00000+0  10477-3 0  9992
2 43689  98.6711 156.1323 0001758  63.9960 296.1398 14.21506518384465
OTB-3-GAZELLE           
1 54023U 22127A   26095.23534876  .00000237  00000+0  84267-4 0  9990
2 54023  98.3931  88.0601 0014146  52.1404 308.1064 14.42648069183844
EOS-6 (OCEANSAT-3)      
1 54361U 22158A   26095.27961931  .00000523  00000+0  15596-3 0  9995
2 54361  98.3484 194.4605 0001680 135.6940 224.4387 14.46983180177299
KINEIS-1B               
1 60079U 24114A   26095.26502830  .00001906  00000+0  25596-3 0  9997
2 60079  97.9886 119.7875 0002085  13.2907 346.8359 14.80497434 96610
KINEIS-1C               
1 60081U 24114C   26095.23126885  .00001935  00000+0  25967-3 0  9993
2 60081  97.9905 119.5853 0002481  83.7295 276.4200 14.80500138 96586
KINEIS-1D               
1 60082U 24114D   26095.31347203  .00001085  00000+0  16432-3 0  9995
2 60082  97.9945 116.2325 0002867  82.1471 278.0064 14.76164069 96373
KINEIS-1E               
1 60083U 24114E   26095.31467878 -.00000979  00000+0 -12092-3 0  9998
2 60083  97.9586 119.6986 0002519  97.7054 262.4444 14.80564958 96609
KINEIS-1A               
1 60084U 24114F   26095.21376600 -.00000070  00000+0 -22683-5 0  9991
2 60084  97.9568 119.7193 0003856  30.8142 329.3296 14.80497750 96593
KINEIS-3C               
1 61220U 24172A   26095.21809246  .00003415  00000+0  54783-3 0  9993
2 61220  98.0343 185.9068 0002588  55.0187 305.1263 14.72321989 82338
KINEIS-3D               
1 61221U 24172B   26095.21135519  .00003384  00000+0  54287-3 0  9993
2 61221  98.0341 185.9113 0001944  64.6618 295.4790 14.72327795 82616
KINEIS-3E               
1 61222U 24172C   26095.19414174  .00001584  00000+0  25835-3 0  9995
2 61222  98.0339 185.8849 0001278  84.7301 275.4052 14.72322846 82612
KINEIS-3A               
1 61223U 24172D   26095.24536516  .00003306  00000+0  53020-3 0  9998
2 61223  98.0332 186.0307 0001274   9.3301 350.7930 14.72355303 82040
KINEIS-3B               
1 61224U 24172E   26095.22860128  .00003299  00000+0  52918-3 0  9992
2 61224  98.0331 186.0438 0001305 357.5502   2.5699 14.72341562 82610
KINEIS-5C               
1 62081U 24219A   26092.96126593 -.00000235  00000+0 -29485-4 0  9998
2 62081  97.9289 253.8721 0004484 119.3889 240.7767 14.72331808 72683
KINEIS-5D               
1 62082U 24219B   26094.15086111  .00000275  00000+0  51146-4 0  9994
2 62082  97.9227 254.9913 0005035 127.8012 232.3652 14.72330144 72868
